OBJECT_NAME,OBJECT_ID,EPOCH,MEAN_MOTION,ECCENTRICITY,INCLINATION,RA_OF_ASC_NODE,ARG_OF_PERICENTER,MEAN_ANOMALY,EPHEMERIS_TYPE,CLASSIFICATION_TYPE,NORAD_CAT_ID,ELEMENT_SET_NO,REV_AT_EPOCH,BSTAR,MEAN_MOTION_DOT,MEAN_MOTION_DDOT
DMSP 5D-3 F16 (USA 172),2003-048A,2026-06-08T07:43:08.355072,14.14482414,.00073161,98.9892,183.0911,163.4747,253.0106,0,U,28054,999,16823,.36159963E-4,.24E-6,0
METEOSAT-9 (MSG-2),2005-049B,2026-06-07T23:23:21.475968,1.00268603,.00017488,9.3397,54.2567,351.8629,246.7838,0,U,28912,999,690,0,.137E-5,0
DMSP 5D-3 F17 (USA 191),2006-050A,2026-06-08T06:14:29.769792,14.14991915,.00113248,98.7377,166.0128,82.3081,277.9379,0,U,29522,999,1116,.5548406E-4,.64E-6,0
FENGYUN 3A,2008-026A,2026-06-08T07:22:35.909184,14.19569342,.00092146,98.6881,100.3068,147.1254,213.0497,0,U,32958,999,93414,.58669477E-4,.8E-6,0
GOES 14,2009-033A,2026-06-08T05:05:51.542304,1.00114135,.00019691,1.6659,83.1525,4.2981,32.5904,0,U,35491,999,650,0,-.239E-5,0
DMSP 5D-3 F18 (USA 210),2009-057A,2026-06-08T05:32:25.234368,14.14891748,.00098773,98.9034,140.0196,278.1340,81.8712,0,U,35951,999,85832,.15143834E-3,.248E-5,0
EWS-G2 (GOES 15),2010-008A,2026-06-08T03:33:38.729088,1.00275825,.00054884,1.2520,83.0108,37.9746,252.5669,0,U,36411,999,5954,0,.34E-6,0
COMS 1,2010-032A,2026-06-03T23:47:39.107040,1.00270643,.0001016,4.7750,75.5286,4.5847,297.3769,0,U,36744,999,5095,0,-.334E-5,0
FENGYUN 3B,2010-059A,2026-06-08T06:10:21.495936,14.14840525,.00214337,98.9620,205.2337,209.8671,238.7933,0,U,37214,999,80616,.12817294E-3,.203E-5,0
SUOMI NPP,2011-061A,2026-06-08T05:56:53.018304,14.19515549,.00020188,98.7952,100.1851,26.4196,333.7082,0,U,37849,999,75717,.53409591E-4,.68E-6,0
METEOSAT-10 (MSG-3),2012-035B,2026-06-08T01:24:15.657120,1.00275787,.00016331,4.6491,61.0583,335.2386,241.4327,0,U,38552,999,5076,0,.1E-6,0
METOP-B,2012-049A,2026-06-08T05:59:53.081088,14.21430314,.00027507,98.6507,210.9271,40.4394,319.6988,0,U,38771,999,71199,.64169354E-4,.97E-6,0
INSAT-3D,2013-038B,2026-06-08T07:09:11.901024,1.00274029,.00008129,1.9021,82.6567,318.6495,92.1907,0,U,39216,999,4699,0,-.323E-5,0
FENGYUN 3C,2013-052A,2026-06-08T06:43:37.449120,14.15753043,.00156458,98.4975,133.5643,51.9301,308.3282,0,U,39260,999,65730,.63798229E-4,.84E-6,0
METEOR-M 2,2014-037A,2026-06-08T06:38:05.414784,14.21459103,.00070145,98.5115,135.3309,65.8839,294.3072,0,U,40069,999,61805,.11503013E-3,.21E-5,0
HIMAWARI-8,2014-060A,2026-06-08T07:12:26.588736,1.00270677,.00008275,0.0241,60.5596,41.4262,43.4896,0,U,40267,999,4267,0,-.26E-5,0
FENGYUN 2G,2014-090A,2026-06-07T19:01:58.617120,1.00277410,.00033766,5.6148,72.9276,153.3297,55.0224,0,U,40367,999,4190,0,-.288E-5,0
METEOSAT-11 (MSG-4),2015-034A,2026-06-08T06:35:01.821696,1.00277544,.00016937,3.1800,71.1599,5.8925,287.8003,0,U,40732,999,712,0,.79E-6,0
ELEKTRO-L 2,2015-074A,2026-06-08T01:19:49.413792,1.00272046,.00011341,6.6705,70.6343,284.8984,266.3917,0,U,41105,999,3841,0,-.103E-5,0
SENTINEL-3A,2016-011A,2026-06-08T05:45:30.993984,14.26737558,.00013481,98.6249,226.7517,104.4338,255.6992,0,U,41335,999,53678,.60695794E-4,.103E-5,0
INSAT-3DR,2016-054A,2026-06-08T01:45:28.622880,1.00270655,.00103852,0.0818,87.6483,186.7487,82.4339,0,U,41752,999,3572,0,-.61E-6,0
HIMAWARI-9,2016-064A,2026-06-08T07:12:26.588736,1.00272860,.00008703,0.0317,158.6712,317.7451,29.1608,0,U,41836,999,3512,0,-.259E-5,0
GOES 16,2016-071A,2026-06-08T06:02:27.849408,1.00270713,.00004579,0.3168,85.6172,315.2230,201.7536,0,U,41866,999,3501,0,-.75E-6,0
FENGYUN 4A,2016-077A,2026-06-08T07:07:34.555872,1.00274132,.00082616,2.2994,80.3795,151.5371,255.4388,0,U,41882,999,3484,0,-.341E-5,0
CYGFM05,2016-078A,2026-06-08T03:15:40.533984,15.56264978,.0006939,34.9577,320.5088,57.2733,302.8659,0,U,41884,999,52734,.29098935E-3,.21149E-3,0
CYGFM04,2016-078B,2026-06-08T01:41:23.050752,15.61001382,.00059603,34.9327,289.0859,104.2372,255.9016,0,U,41885,999,52757,.34873829E-3,.30386E-3,0
CYGFM02,2016-078C,2026-06-07T18:27:34.752672,15.63886780,.0006939,34.9410,285.9023,102.1457,258.0047,0,U,41886,999,52769,.35546881E-3,.34711E-3,0
CYGFM01,2016-078D,2026-06-07T20:55:43.384224,15.56917446,.00069115,34.9407,323.3879,47.7074,312.4235,0,U,41887,999,52725,.33867867E-3,.25246E-3,0
CYGFM08,2016-078E,2026-06-07T17:15:47.082816,15.59518568,.00078388,34.9437,304.2251,81.2519,278.9093,0,U,41888,999,52749,.36035801E-3,.29673E-3,0
CYGFM07,2016-078G,2026-06-07T16:17:49.114752,15.59620790,.00063457,34.9451,292.8440,98.7772,261.3672,0,U,41890,999,52751,.35980263E-3,.29729E-3,0
CYGFM03,2016-078H,2026-06-07T18:40:20.380224,15.59618754,.00059075,34.9404,294.1248,86.1053,274.0347,0,U,41891,999,52750,.3307232E-3,.27308E-3,0
